ONEWEB-0615             
1 54676U 22166AL  25214.26716923  .00000024  00000+0  26576-4 0  9990
2 54676  87.9271 307.6174 0002013  98.9300 261.2062 13.21827276129311
ONEWEB-0655             
1 54677U 22166AM  25214.31605701 -.00000116  00000+0 -31175-3 0  9992
2 54677  87.9271 307.6130 0002309  98.5367 261.6028 13.21823398129318
ONEWEB-0659             
1 54678U 22166AN  25214.56049541  .00000033  00000+0  49247-4 0  9990
2 54678  87.9270 307.5651 0001847  97.4967 262.6377 13.21825978129432
ONEWEB-0685             
1 54679U 22166AP  25214.33499363 -.00000016  00000+0 -70318-4 0  9993
2 54679  87.9272 307.6052 0002161 106.7471 253.3900 13.21825502129291
ONEWEB-0712             
1 54680U 22166AQ  25214.25275966 -.00000066  00000+0 -20538-3 0  9990
2 54680  87.9047 292.3359 0002613  93.7843 266.3586 13.16596018130098
ONEWEB-0714             
1 54681U 22166AR  25214.26559546  .00000018  00000+0  11800-4 0  9999
2 54681  87.9272 307.6123 0002210 103.5454 256.5927 13.21826781129401
ONEWEB-0532             
1 55140U 23004A   25214.32923339  .00000047  00000+0  87626-4 0  9995
2 55140  87.9038  69.3181 0001444  93.9780 266.1516 13.17649845125596
ONEWEB-0533             
1 55141U 23004B   25214.48113275  .00000212  00000+0  55344-3 0  9998
2 55141  87.8858  54.0178 0001907  90.9506 269.1841 13.12442206126255
ONEWEB-0541             
1 55142U 23004C   25214.41438597  .00000152  00000+0  39299-3 0  9993
2 55142  87.8806  84.5825 0001720  79.3397 280.7924 13.11415829124167
ONEWEB-0543             
1 55143U 23004D   25214.48249908 -.00000136  00000+0 -37761-3 0  9993
2 55143  87.9111  38.8232 0002068  87.2904 272.8464 13.18685062127697
ONEWEB-0544             
1 55144U 23004E   25214.47590044 -.00000029  00000+0 -10710-3 0  9999
2 55144  87.9113  38.8149 0001865  82.9528 277.1816 13.18684853127691
ONEWEB-0560             
1 55145U 23004F   25214.46930864  .00000025  00000+0  31779-4 0  9990
2 55145  87.9119  38.7917 0001884  80.6324 279.5021 13.18684584127707
ONEWEB-0565             
1 55146U 23004G   25214.46271604  .00000069  00000+0  14249-3 0  9991
2 55146  87.9112  38.8500 0001343  79.5974 280.5309 13.18686662127696
ONEWEB-0567             
1 55147U 23004H   25214.45612059  .00000060  00000+0  11941-3 0  9991
2 55147  87.9118  38.8089 0001602  78.5875 281.5437 13.18686836127698
ONEWEB-0569             
1 55148U 23004J   25214.50959880 -.00000140  00000+0 -41893-3 0  9994
2 55148  87.8970  23.5108 0001876  60.4208 299.7108 13.13470364128341
ONEWEB-0570             
1 55149U 23004K   25214.52208437  .00000068  00000+0  13982-3 0  9997
2 55149  87.9114  38.7977 0001289 100.7814 259.3463 13.18685009127696
ONEWEB-0571             
1 55150U 23004L   25214.51549191  .00000092  00000+0  20000-3 0  9999
2 55150  87.9110  38.8055 0001333  44.7483 315.3756 13.18687070127701
