[{"OBJECT_NAME":"ONEWEB-0615","OBJECT_ID":"2022-166AL","EPOCH":"2025-08-02T06:24:43.421472","MEAN_MOTION":13.21827276,"ECCENTRICITY":0.0002013,"INCLINATION":87.9271,"RA_OF_ASC_NODE":307.6174,"ARG_OF_PERICENTER":98.93,"MEAN_ANOMALY":261.2062,"EPHEMERIS_TYPE":0,"CLASSIFICATION_TYPE":"U","NORAD_CAT_ID":54676,"ELEMENT_SET_NO":999,"REV_AT_EPOCH":12931,"BSTAR":2.6576e-5,"MEAN_MOTION_DOT":2.4e-7,"MEAN_MOTION_DDOT":0},{"OBJECT_NAME":"ONEWEB-0655","OBJECT_ID":"2022-166AM","EPOCH":"2025-08-02T07:35:07.325664","MEAN_MOTION":13.21823398,"ECCENTRICITY":0.0002309,"INCLINATION":87.9271,"RA_OF_ASC_NODE":307.613,"ARG_OF_PERICENTER":98.5367,"MEAN_ANOMALY":261.6028,"EPHEMERIS_TYPE":0,"CLASSIFICATION_TYPE":"U","NORAD_CAT_ID":54677,"ELEMENT_SET_NO":999,"REV_AT_EPOCH":12931,"BSTAR":-0.00031175,"MEAN_MOTION_DOT":-1.16e-6,"MEAN_MOTION_DDOT":0},{"OBJECT_NAME":"ONEWEB-0659","OBJECT_ID":"2022-166AN","EPOCH":"2025-08-02T13:27:06.803424","MEAN_MOTION":13.21825978,"ECCENTRICITY":0.0001847,"INCLINATION":87.927,"RA_OF_ASC_NODE":307.5651,"ARG_OF_PERICENTER":97.4967,"MEAN_ANOMALY":262.6377,"EPHEMERIS_TYPE":0,"CLASSIFICATION_TYPE":"U","NORAD_CAT_ID":54678,"ELEMENT_SET_NO":999,"REV_AT_EPOCH":12943,"BSTAR":4.9247e-5,"MEAN_MOTION_DOT":3.3e-7,"MEAN_MOTION_DDOT":0},{"OBJECT_NAME":"ONEWEB-0685","OBJECT_ID":"2022-166AP","EPOCH":"2025-08-02T08:02:23.449632","MEAN_MOTION":13.21825502,"ECCENTRICITY":0.0002161,"INCLINATION":87.9272,"RA_OF_ASC_NODE":307.6052,"ARG_OF_PERICENTER":106.7471,"MEAN_ANOMALY":253.39,"EPHEMERIS_TYPE":0,"CLASSIFICATION_TYPE":"U","NORAD_CAT_ID":54679,"ELEMENT_SET_NO":999,"REV_AT_EPOCH":12929,"BSTAR":-7.0318e-5,"MEAN_MOTION_DOT":-1.6e-7,"MEAN_MOTION_DDOT":0},{"OBJECT_NAME":"ONEWEB-0712","OBJECT_ID":"2022-166AQ","EPOCH":"2025-08-02T06:03:58.434624","MEAN_MOTION":13.16596018,"ECCENTRICITY":0.0002613,"INCLINATION":87.9047,"RA_OF_ASC_NODE":292.3359,"ARG_OF_PERICENTER":93.7843,"MEAN_ANOMALY":266.3586,"EPHEMERIS_TYPE":0,"CLASSIFICATION_TYPE":"U","NORAD_CAT_ID":54680,"ELEMENT_SET_NO":999,"REV_AT_EPOCH":13009,"BSTAR":-0.00020538,"MEAN_MOTION_DOT":-6.6e-7,"MEAN_MOTION_DDOT":0},{"OBJECT_NAME":"ONEWEB-0714","OBJECT_ID":"2022-166AR","EPOCH":"2025-08-02T06:22:27.447744","MEAN_MOTION":13.21826781,"ECCENTRICITY":0.000221,"INCLINATION":87.9272,"RA_OF_ASC_NODE":307.6123,"ARG_OF_PERICENTER":103.5454,"MEAN_ANOMALY":256.5927,"EPHEMERIS_TYPE":0,"CLASSIFICATION_TYPE":"U","NORAD_CAT_ID":54681,"ELEMENT_SET_NO":999,"REV_AT_EPOCH":12940,"BSTAR":1.18e-5,"MEAN_MOTION_DOT":1.8e-7,"MEAN_MOTION_DDOT":0},{"OBJECT_NAME":"ONEWEB-0532","OBJECT_ID":"2023-004A","EPOCH":"2025-08-02T07:54:05.764896","MEAN_MOTION":13.17649845,"ECCENTRICITY":0.0001444,"INCLINATION":87.9038,"RA_OF_ASC_NODE":69.3181,"ARG_OF_PERICENTER":93.978,"MEAN_ANOMALY":266.1516,"EPHEMERIS_TYPE":0,"CLASSIFICATION_TYPE":"U","NORAD_CAT_ID":55140,"ELEMENT_SET_NO":999,"REV_AT_EPOCH":12559,"BSTAR":8.7626e-5,"MEAN_MOTION_DOT":4.7e-7,"MEAN_MOTION_DDOT":0},{"OBJECT_NAME":"ONEWEB-0533","OBJECT_ID":"2023-004B","EPOCH":"2025-08-02T11:32:49.869600","MEAN_MOTION":13.12442206,"ECCENTRICITY":0.0001907,"INCLINATION":87.8858,"RA_OF_ASC_NODE":54.0178,"ARG_OF_PERICENTER":90.9506,"MEAN_ANOMALY":269.1841,"EPHEMERIS_TYPE":0,"CLASSIFICATION_TYPE":"U","NORAD_CAT_ID":55141,"ELEMENT_SET_NO":999,"REV_AT_EPOCH":12625,"BSTAR":0.00055344,"MEAN_MOTION_DOT":2.12e-6,"MEAN_MOTION_DDOT":0},{"OBJECT_NAME":"ONEWEB-0541","OBJECT_ID":"2023-004C","EPOCH":"2025-08-02T09:56:42.947808","MEAN_MOTION":13.11415829,"ECCENTRICITY":0.000172,"INCLINATION":87.8806,"RA_OF_ASC_NODE":84.5825,"ARG_OF_PERICENTER":79.3397,"MEAN_ANOMALY":280.7924,"EPHEMERIS_TYPE":0,"CLASSIFICATION_TYPE":"U","NORAD_CAT_ID":55142,"ELEMENT_SET_NO":999,"REV_AT_EPOCH":12416,"BSTAR":0.00039299,"MEAN_MOTION_DOT":1.52e-6,"MEAN_MOTION_DDOT":0},{"OBJECT_NAME":"ONEWEB-0543","OBJECT_ID":"2023-004D","EPOCH":"2025-08-02T11:34:47.920512","MEAN_MOTION":13.18685062,"ECCENTRICITY":0.0002068,"INCLINATION":87.9111,"RA_OF_ASC_NODE":38.8232,"ARG_OF_PERICENTER":87.2904,"MEAN_ANOMALY":272.8464,"EPHEMERIS_TYPE":0,"CLASSIFICATION_TYPE":"U","NORAD_CAT_ID":55143,"ELEMENT_SET_NO":999,"REV_AT_EPOCH":12769,"BSTAR":-0.00037761,"MEAN_MOTION_DOT":-1.36e-6,"MEAN_MOTION_DDOT":0},{"OBJECT_NAME":"ONEWEB-0544","OBJECT_ID":"2023-004E","EPOCH":"2025-08-02T11:25:17.798016","MEAN_MOTION":13.18684853,"ECCENTRICITY":0.0001865,"INCLINATION":87.9113,"RA_OF_ASC_NODE":38.8149,"ARG_OF_PERICENTER":82.9528,"MEAN_ANOMALY":277.1816,"EPHEMERIS_TYPE":0,"CLASSIFICATION_TYPE":"U","NORAD_CAT_ID":55144,"ELEMENT_SET_NO":999,"REV_AT_EPOCH":12769,"BSTAR":-0.0001071,"MEAN_MOTION_DOT":-2.9e-7,"MEAN_MOTION_DDOT":0},{"OBJECT_NAME":"ONEWEB-0560","OBJECT_ID":"2023-004F","EPOCH":"2025-08-02T11:15:48.266496","MEAN_MOTION":13.18684584,"ECCENTRICITY":0.0001884,"INCLINATION":87.9119,"RA_OF_ASC_NODE":38.7917,"ARG_OF_PERICENTER":80.6324,"MEAN_ANOMALY":279.5021,"EPHEMERIS_TYPE":0,"CLASSIFICATION_TYPE":"U","NORAD_CAT_ID":55145,"ELEMENT_SET_NO":999,"REV_AT_EPOCH":12770,"BSTAR":3.1779e-5,"MEAN_MOTION_DOT":2.5e-7,"MEAN_MOTION_DDOT":0},{"OBJECT_NAME":"ONEWEB-0565","OBJECT_ID":"2023-004G","EPOCH":"2025-08-02T11:06:18.665856","MEAN_MOTION":13.18686662,"ECCENTRICITY":0.0001343,"INCLINATION":87.9112,"RA_OF_ASC_NODE":38.85,"ARG_OF_PERICENTER":79.5974,"MEAN_ANOMALY":280.5309,"EPHEMERIS_TYPE":0,"CLASSIFICATION_TYPE":"U","NORAD_CAT_ID":55146,"ELEMENT_SET_NO":999,"REV_AT_EPOCH":12769,"BSTAR":0.00014249,"MEAN_MOTION_DOT":6.9e-7,"MEAN_MOTION_DDOT":0},{"OBJECT_NAME":"ONEWEB-0567","OBJECT_ID":"2023-004H","EPOCH":"2025-08-02T10:56:48.818976","MEAN_MOTION":13.18686836,"ECCENTRICITY":0.0001602,"INCLINATION":87.9118,"RA_OF_ASC_NODE":38.8089,"ARG_OF_PERICENTER":78.5875,"MEAN_ANOMALY":281.5437,"EPHEMERIS_TYPE":0,"CLASSIFICATION_TYPE":"U","NORAD_CAT_ID":55147,"ELEMENT_SET_NO":999,"REV_AT_EPOCH":12769,"BSTAR":0.00011941,"MEAN_MOTION_DOT":6.0e-7,"MEAN_MOTION_DDOT":0},{"OBJECT_NAME":"ONEWEB-0569","OBJECT_ID":"2023-004J","EPOCH":"2025-08-02T12:13:49.336320","MEAN_MOTION":13.13470364,"ECCENTRICITY":0.0001876,"INCLINATION":87.897,"RA_OF_ASC_NODE":23.5108,"ARG_OF_PERICENTER":60.4208,"MEAN_ANOMALY":299.7108,"EPHEMERIS_TYPE":0,"CLASSIFICATION_TYPE":"U","NORAD_CAT_ID":55148,"ELEMENT_SET_NO":999,"REV_AT_EPOCH":12834,"BSTAR":-0.00041893,"MEAN_MOTION_DOT":-1.4e-6,"MEAN_MOTION_DDOT":0},{"OBJECT_NAME":"ONEWEB-0570","OBJECT_ID":"2023-004K","EPOCH":"2025-08-02T12:31:48.089568","MEAN_MOTION":13.18685009,"ECCENTRICITY":0.0001289,"INCLINATION":87.9114,"RA_OF_ASC_NODE":38.7977,"ARG_OF_PERICENTER":100.7814,"MEAN_ANOMALY":259.3463,"EPHEMERIS_TYPE":0,"CLASSIFICATION_TYPE":"U","NORAD_CAT_ID":55149,"ELEMENT_SET_NO":999,"REV_AT_EPOCH":12769,"BSTAR":0.00013982,"MEAN_MOTION_DOT":6.8e-7,"MEAN_MOTION_DDOT":0},{"OBJECT_NAME":"ONEWEB-0571","OBJECT_ID":"2023-004L","EPOCH":"2025-08-02T12:22:18.501024","MEAN_MOTION":13.1868707,"ECCENTRICITY":0.0001333,"INCLINATION":87.911,"RA_OF_ASC_NODE":38.8055,"ARG_OF_PERICENTER":44.7483,"MEAN_ANOMALY":315.3756,"EPHEMERIS_TYPE":0,"CLASSIFICATION_TYPE":"U","NORAD_CAT_ID":55150,"ELEMENT_SET_NO":999,"REV_AT_EPOCH":12770,"BSTAR":0.0002,"MEAN_MOTION_DOT":9.2e-7,"MEAN_MOTION_DDOT":0}]
